{
  "type": "FeatureCollection",
  "features": [
    {
      "type": "Feature",
      "properties": {
        "norad_id": 29894,
        "name": "FENGYUN 1C DEB",
        "group": "fengyun-1c-debris",
        "lat": 13.21937699540278,
        "lon": 45.79929709189592,
        "alt_km": 841.0577048433533,
        "timestamp": "2025-12-19T16:54:44.533397+00:00",
        "meta_object_name": "FENGYUN 1C DEB",
        "meta_object_id": "1999-025GQ",
        "meta_epoch": "2025-12-19T03:04:10.659360",
        "meta_mean_motion": 13.80980087,
        "meta_eccentricity": 0.01681889,
        "meta_inclination": 99.4852,
        "meta_ra_of_asc_node": 47.4708,
        "meta_arg_of_pericenter": 28.1785,
        "meta_mean_anomaly": 359.8084,
        "meta_ephemeris_type": 0,
        "meta_classification_type": "U",
        "meta_norad_cat_id": 29894,
        "meta_element_set_no": 999,
        "meta_rev_at_epoch": 95165,
        "meta_bstar": 0.00045105588,
        "meta_mean_motion_dot": 4.85e-06,
        "meta_mean_motion_ddot": 0,
        "tle_line1": "1 29894U 99025GQ  25353.12790115  .00000485  00000+0  45106-3 0  9996",
        "tle_line2": "2 29894  99.4852  47.4708 0168188  28.1785 359.8084 13.80980087951651"
      },
      "geometry": {
        "type": "Point",
        "coordinates": [
          45.79929709189592,
          13.21937699540278
        ]
      }
    },
    {
      "type": "Feature",
      "properties": {
        "norad_id": 29895,
        "name": "FENGYUN 1C DEB",
        "group": "fengyun-1c-debris",
        "lat": 76.6014099684874,
        "lon": 55.71459909102621,
        "alt_km": 948.8269521117845,
        "timestamp": "2025-12-19T16:54:44.533408+00:00",
        "meta_object_name": "FENGYUN 1C DEB",
        "meta_object_id": "1999-025GR",
        "meta_epoch": "2025-12-19T06:27:11.003904",
        "meta_mean_motion": 14.08294223,
        "meta_eccentricity": 0.02995317,
        "meta_inclination": 99.8852,
        "meta_ra_of_asc_node": 102.2925,
        "meta_arg_of_pericenter": 325.802,
        "meta_mean_anomaly": 63.7413,
        "meta_ephemeris_type": 0,
        "meta_classification_type": "U",
        "meta_norad_cat_id": 29895,
        "meta_element_set_no": 999,
        "meta_rev_at_epoch": 95616,
        "meta_bstar": 0.0014486829,
        "meta_mean_motion_dot": 3.685e-05,
        "meta_mean_motion_ddot": 0,
        "tle_line1": "1 29895U 99025GR  25353.26887736  .00003685  00000+0  14487-2 0  9990",
        "tle_line2": "2 29895  99.8852 102.2925 0299531 325.8020  63.7413 14.08294223956162"
      },
      "geometry": {
        "type": "Point",
        "coordinates": [
          55.71459909102621,
          76.6014099684874
        ]
      }
    },
    {
      "type": "Feature",
      "properties": {
        "norad_id": 29896,
        "name": "FENGYUN 1C DEB",
        "group": "fengyun-1c-debris",
        "lat": 26.169853623600467,
        "lon": 69.92080320401672,
        "alt_km": 948.8475663819609,
        "timestamp": "2025-12-19T16:54:44.533418+00:00",
        "meta_object_name": "FENGYUN 1C DEB",
        "meta_object_id": "1999-025GS",
        "meta_epoch": "2025-12-19T06:14:46.809600",
        "meta_mean_motion": 13.65375237,
        "meta_eccentricity": 0.0239964,
        "meta_inclination": 99.4225,
        "meta_ra_of_asc_node": 244.8083,
        "meta_arg_of_pericenter": 85.1485,
        "meta_mean_anomaly": 42.3134,
        "meta_ephemeris_type": 0,
        "meta_classification_type": "U",
        "meta_norad_cat_id": 29896,
        "meta_element_set_no": 999,
        "meta_rev_at_epoch": 94131,
        "meta_bstar": 0.00057128511,
        "meta_mean_motion_dot": 5.25e-06,
        "meta_mean_motion_ddot": 0,
        "tle_line1": "1 29896U 99025GS  25353.26026400  .00000525  00000+0  57129-3 0  9995",
        "tle_line2": "2 29896  99.4225 244.8083 0239964  85.1485  42.3134 13.65375237941317"
      },
      "geometry": {
        "type": "Point",
        "coordinates": [
          69.92080320401672,
          26.169853623600467
        ]
      }
    },
    {
      "type": "Feature",
      "properties": {
        "norad_id": 29897,
        "name": "FENGYUN 1C DEB",
        "group": "fengyun-1c-debris",
        "lat": -47.88221507139503,
        "lon": 27.46415166010284,
        "alt_km": 1114.6487348481223,
        "timestamp": "2025-12-19T16:54:44.533429+00:00",
        "meta_object_name": "FENGYUN 1C DEB",
        "meta_object_id": "1999-025GT",
        "meta_epoch": "2025-12-17T14:25:33.441600",
        "meta_mean_motion": 13.57200283,
        "meta_eccentricity": 0.02966784,
        "meta_inclination": 98.6298,
        "meta_ra_of_asc_node": 215.2843,
        "meta_arg_of_pericenter": 126.0243,
        "meta_mean_anomaly": 266.6756,
        "meta_ephemeris_type": 0,
        "meta_classification_type": "U",
        "meta_norad_cat_id": 29897,
        "meta_element_set_no": 999,
        "meta_rev_at_epoch": 93006,
        "meta_bstar": 0.0017231343,
        "meta_mean_motion_dot": 1.601e-05,
        "meta_mean_motion_ddot": 0,
        "tle_line1": "1 29897U 99025GT  25351.60108150  .00001601  00000+0  17231-2 0  9990",
        "tle_line2": "2 29897  98.6298 215.2843 0296678 126.0243 266.6756 13.57200283930067"
      },
      "geometry": {
        "type": "Point",
        "coordinates": [
          27.46415166010284,
          -47.88221507139503
        ]
      }
    },
    {
      "type": "Feature",
      "properties": {
        "norad_id": 29898,
        "name": "FENGYUN 1C DEB",
        "group": "fengyun-1c-debris",
        "lat": -62.65651071174379,
        "lon": 148.83178117825045,
        "alt_km": 902.793841110134,
        "timestamp": "2025-12-19T16:54:44.533443+00:00",
        "meta_object_name": "FENGYUN 1C DEB",
        "meta_object_id": "1999-025GU",
        "meta_epoch": "2025-12-18T22:22:41.184768",
        "meta_mean_motion": 13.70342046,
        "meta_eccentricity": 0.04270107,
        "meta_inclination": 98.2224,
        "meta_ra_of_asc_node": 344.4061,
        "meta_arg_of_pericenter": 172.5539,
        "meta_mean_anomaly": 218.916,
        "meta_ephemeris_type": 0,
        "meta_classification_type": "U",
        "meta_norad_cat_id": 29898,
        "meta_element_set_no": 999,
        "meta_rev_at_epoch": 93246,
        "meta_bstar": 0.0012720259,
        "meta_mean_motion_dot": 2.111e-05,
        "meta_mean_motion_ddot": 0,
        "tle_line1": "1 29898U 99025GU  25352.93242112  .00002111  00000+0  12720-2 0  9990",
        "tle_line2": "2 29898  98.2224 344.4061 0427010 172.5539 218.9160 13.70342046932464"
      },
      "geometry": {
        "type": "Point",
        "coordinates": [
          148.83178117825045,
          -62.65651071174379
        ]
      }
    },
    {
      "type": "Feature",
      "properties": {
        "norad_id": 29899,
        "name": "FENGYUN 1C DEB",
        "group": "fengyun-1c-debris",
        "lat": -5.5053037957011695,
        "lon": -32.6443381524378,
        "alt_km": 1263.590553240263,
        "timestamp": "2025-12-19T16:54:44.533454+00:00",
        "meta_object_name": "FENGYUN 1C DEB",
        "meta_object_id": "1999-025GV",
        "meta_epoch": "2025-12-18T22:04:10.309728",
        "meta_mean_motion": 13.37494251,
        "meta_eccentricity": 0.03535016,
        "meta_inclination": 98.6618,
        "meta_ra_of_asc_node": 147.5275,
        "meta_arg_of_pericenter": 63.477,
        "meta_mean_anomaly": 300.2151,
        "meta_ephemeris_type": 0,
        "meta_classification_type": "U",
        "meta_norad_cat_id": 29899,
        "meta_element_set_no": 999,
        "meta_rev_at_epoch": 92167,
        "meta_bstar": 0.00016012299,
        "meta_mean_motion_dot": 8.8e-07,
        "meta_mean_motion_ddot": 0,
        "tle_line1": "1 29899U 99025GV  25352.91956377  .00000088  00000+0  16012-3 0  9994",
        "tle_line2": "2 29899  98.6618 147.5275 0353501  63.4770 300.2151 13.37494251921678"
      },
      "geometry": {
        "type": "Point",
        "coordinates": [
          -32.6443381524378,
          -5.5053037957011695
        ]
      }
    },
    {
      "type": "Feature",
      "properties": {
        "norad_id": 29901,
        "name": "FENGYUN 1C DEB",
        "group": "fengyun-1c-debris",
        "lat": -80.13627638825606,
        "lon": -78.74403206678737,
        "alt_km": 857.1832701661788,
        "timestamp": "2025-12-19T16:54:44.533464+00:00",
        "meta_object_name": "FENGYUN 1C DEB",
        "meta_object_id": "1999-025GX",
        "meta_epoch": "2025-12-18T23:59:47.357952",
        "meta_mean_motion": 13.33257383,
        "meta_eccentricity": 0.03791739,
        "meta_inclination": 98.7446,
        "meta_ra_of_asc_node": 162.9249,
        "meta_arg_of_pericenter": 269.693,
        "meta_mean_anomaly": 214.6827,
        "meta_ephemeris_type": 0,
        "meta_classification_type": "U",
        "meta_norad_cat_id": 29901,
        "meta_element_set_no": 999,
        "meta_rev_at_epoch": 92002,
        "meta_bstar": 0.00036757366,
        "meta_mean_motion_dot": 2.32e-06,
        "meta_mean_motion_ddot": 0,
        "tle_line1": "1 29901U 99025GX  25352.99985368  .00000232  00000+0  36757-3 0  9997",
        "tle_line2": "2 29901  98.7446 162.9249 0379173 269.6930 214.6827 13.33257383920020"
      },
      "geometry": {
        "type": "Point",
        "coordinates": [
          -78.74403206678737,
          -80.13627638825606
        ]
      }
    }
  ]
}